start=new Date('2022-01-10T00:00:00.000Z').valueOf();
sats=[{"TLE_LINE2":"2 50158  53.2185 254.8004 0000975  81.9741 246.1243 15.73243952  3735","COUNTRY_CODE":"US","SEMIMAJOR_AXIS":"6727.770","REF_FRAME":"TEME","CLASSIFICATION_TYPE":"U","EPOCH":"2022-01-09T22:00:00.999936","ARG_OF_PERICENTER":"81.9741","OBJECT_TYPE":"PAYLOAD","APOAPSIS":"350.291","MEAN_ANOMALY":"246.1243","MEAN_MOTION_DOT":"0.00004047","DECAY_DATE":null,"PERIOD":"91.531","RCS_SIZE":"LARGE","CENTER_NAME":"EARTH","OBJECT_ID":"2021-125C","REV_AT_EPOCH":"373","BSTAR":"0.00003317400000","NORAD_CAT_ID":"50158","ELEMENT_SET_NO":"999","FILE":"3268323","TIME_SYSTEM":"UTC","OBJECT_NAME":"STARLINK-3309","RA_OF_ASC_NODE":"254.8004","MEAN_MOTION_DDOT":"0.0000000000000","EPHEMERIS_TYPE":"0","MEAN_MOTION":"15.73243952","PERIAPSIS":"348.979","TLE_LINE1":"1 50158U 21125C   22009.91667824  .00004047  00000-0  33174-4 0  9993","MEAN_ELEMENT_THEORY":"SGP4","INCLINATION":"53.2185","SITE":"AFWTR","ECCENTRICITY":"0.00009750","GP_ID":"193560687","LAUNCH_DATE":"2021-12-18"},{"REV_AT_EPOCH":"373","BSTAR":"-0.00005808800000","NORAD_CAT_ID":"50159","TIME_SYSTEM":"UTC","FILE":"3268323","ELEMENT_SET_NO":"999","OBJECT_NAME":"STARLINK-3297","RA_OF_ASC_NODE":"254.8004","MEAN_MOTION_DDOT":"0.0000000000000","EPHEMERIS_TYPE":"0","MEAN_MOTION":"15.73306023","TLE_LINE1":"1 50159U 21125D   22009.91667824 -.00008800  00000-0 -58088-4 0  9998","PERIAPSIS":"349.027","MEAN_ELEMENT_THEORY":"SGP4","SITE":"AFWTR","INCLINATION":"53.2191","ECCENTRICITY":"0.00006400","GP_ID":"193559453","LAUNCH_DATE":"2021-12-18","TLE_LINE2":"2 50159  53.2191 254.8004 0000640  82.9591 246.0021 15.73306023  3738","COUNTRY_CODE":"US","SEMIMAJOR_AXIS":"6727.593","REF_FRAME":"TEME","CLASSIFICATION_TYPE":"U","EPOCH":"2022-01-09T22:00:00.999936","ARG_OF_PERICENTER":"82.9591","OBJECT_TYPE":"PAYLOAD","APOAPSIS":"349.888","MEAN_ANOMALY":"246.0021","MEAN_MOTION_DOT":"-0.00008800","DECAY_DATE":null,"RCS_SIZE":"LARGE","PERIOD":"91.527","CENTER_NAME":"EARTH","OBJECT_ID":"2021-125D"},{"CLASSIFICATION_TYPE":"U","REF_FRAME":"TEME","SEMIMAJOR_AXIS":"6727.707","COUNTRY_CODE":"US","TLE_LINE2":"2 50160  53.2173 254.8031 0001087  93.5319 233.7204 15.73265969  3731","RCS_SIZE":"LARGE","CENTER_NAME":"EARTH","PERIOD":"91.529","OBJECT_ID":"2021-125E","MEAN_MOTION_DOT":"-0.00007756","DECAY_DATE":null,"APOAPSIS":"350.303","OBJECT_TYPE":"PAYLOAD","MEAN_ANOMALY":"233.7204","EPOCH":"2022-01-09T22:00:00.999936","ARG_OF_PERICENTER":"93.5319","OBJECT_NAME":"STARLINK-3288","RA_OF_ASC_NODE":"254.8031","MEAN_MOTION_DDOT":"0.0000000000000","ELEMENT_SET_NO":"999","FILE":"3268323","TIME_SYSTEM":"UTC","NORAD_CAT_ID":"50160","BSTAR":"-0.00005074900000","REV_AT_EPOCH":"373","GP_ID":"193559703","LAUNCH_DATE":"2021-12-18","SITE":"AFWTR","INCLINATION":"53.2173","MEAN_ELEMENT_THEORY":"SGP4","ECCENTRICITY":"0.00010870","MEAN_MOTION":"15.73265969","EPHEMERIS_TYPE":"0","TLE_LINE1":"1 50160U 21125E   22009.91667824 -.00007756  00000-0 -50749-4 0  9995","PERIAPSIS":"348.841"},{"PERIOD":"91.531","RCS_SIZE":"LARGE","CENTER_NAME":"EARTH","OBJECT_ID":"2021-125F","DECAY_DATE":null,"MEAN_MOTION_DOT":"0.00000603","APOAPSIS":"350.361","OBJECT_TYPE":"PAYLOAD","MEAN_ANOMALY":"236.7335","EPOCH":"2022-01-09T22:00:00.999936","ARG_OF_PERICENTER":"89.5809","CLASSIFICATION_TYPE":"U","REF_FRAME":"TEME","SEMIMAJOR_AXIS":"6727.771","COUNTRY_CODE":"US","TLE_LINE2":"2 50161  53.2188 254.8056 0001077  89.5809 236.7335 15.73243419  3737","GP_ID":"193560455","LAUNCH_DATE":"2021-12-18","SITE":"AFWTR","INCLINATION":"53.2188","MEAN_ELEMENT_THEORY":"SGP4","ECCENTRICITY":"0.00010770","MEAN_MOTION":"15.73243419","EPHEMERIS_TYPE":"0","PERIAPSIS":"348.912","TLE_LINE1":"1 50161U 21125F   22009.91667824  .00000603  00000-0  86965-5 0  9998","OBJECT_NAME":"STARLINK-3304","RA_OF_ASC_NODE":"254.8056","MEAN_MOTION_DDOT":"0.0000000000000","ELEMENT_SET_NO":"999","FILE":"3268323","TIME_SYSTEM":"UTC","NORAD_CAT_ID":"50161","BSTAR":"0.00000869650000","REV_AT_EPOCH":"373"},{"OBJECT_ID":"2021-125G","PERIOD":"91.329","RCS_SIZE":"LARGE","CENTER_NAME":"EARTH","DECAY_DATE":null,"MEAN_MOTION_DOT":"0.00016742","MEAN_ANOMALY":"207.8071","OBJECT_TYPE":"PAYLOAD","APOAPSIS":"340.610","ARG_OF_PERICENTER":"79.1723","EPOCH":"2022-01-09T22:00:00.999936","CLASSIFICATION_TYPE":"U","SEMIMAJOR_AXIS":"6717.875","REF_FRAME":"TEME","COUNTRY_CODE":"US","TLE_LINE2":"2 50162  53.2194 254.8846 0001294  79.1723 207.8071 15.76720944  3735","LAUNCH_DATE":"2021-12-18","GP_ID":"193561187","ECCENTRICITY":"0.00012940","MEAN_ELEMENT_THEORY":"SGP4","SITE":"AFWTR","INCLINATION":"53.2194","TLE_LINE1":"1 50162U 21125G   22009.91667824  .00016742  00000-0  10613-3 0  9995","PERIAPSIS":"338.871","EPHEMERIS_TYPE":"0","MEAN_MOTION":"15.76720944","RA_OF_ASC_NODE":"254.8846","MEAN_MOTION_DDOT":"0.0000000000000","OBJECT_NAME":"STARLINK-3303","FILE":"3268323","ELEMENT_SET_NO":"999","TIME_SYSTEM":"UTC","BSTAR":"0.00010613000000","NORAD_CAT_ID":"50162","REV_AT_EPOCH":"373"},{"BSTAR":"-0.00045942000000","NORAD_CAT_ID":"50163","REV_AT_EPOCH":"635","RA_OF_ASC_NODE":"254.7165","MEAN_MOTION_DDOT":"0.0000000000000","OBJECT_NAME":"STARLINK-3306","FILE":"3268267","ELEMENT_SET_NO":"999","TIME_SYSTEM":"UTC","PERIAPSIS":"348.776","TLE_LINE1":"1 50163U 21125H   22009.91667824 -.00064839  00000-0 -45942-3 0  9991","EPHEMERIS_TYPE":"0","MEAN_MOTION":"15.73286762","LAUNCH_DATE":"2021-12-18","GP_ID":"193535655","ECCENTRICITY":"0.00010950","MEAN_ELEMENT_THEORY":"SGP4","INCLINATION":"53.2177","SITE":"AFWTR","COUNTRY_CODE":"US","TLE_LINE2":"2 50163  53.2177 254.7165 0001095  95.0059 273.5358 15.73286762  6359","CLASSIFICATION_TYPE":"U","SEMIMAJOR_AXIS":"6727.648","REF_FRAME":"TEME","MEAN_ANOMALY":"273.5358","OBJECT_TYPE":"PAYLOAD","APOAPSIS":"350.250","ARG_OF_PERICENTER":"95.0059","EPOCH":"2022-01-09T22:00:00.999936","OBJECT_ID":"2021-125H","RCS_SIZE":"LARGE","PERIOD":"91.528","CENTER_NAME":"EARTH","MEAN_MOTION_DOT":"-0.00064839","DECAY_DATE":null},{"REF_FRAME":"TEME","SEMIMAJOR_AXIS":"6727.997","CLASSIFICATION_TYPE":"U","TLE_LINE2":"2 50164  53.2186 254.7942 0000911  96.2754 234.9539 15.73164122  6351","COUNTRY_CODE":"US","MEAN_MOTION_DOT":"0.00003684","DECAY_DATE":null,"PERIOD":"91.535","RCS_SIZE":"LARGE","CENTER_NAME":"EARTH","OBJECT_ID":"2021-125J","EPOCH":"2022-01-09T22:00:00.999936","ARG_OF_PERICENTER":"96.2754","APOAPSIS":"350.475","OBJECT_TYPE":"PAYLOAD","MEAN_ANOMALY":"234.9539","TIME_SYSTEM":"UTC","FILE":"3268278","ELEMENT_SET_NO":"999","OBJECT_NAME":"STARLINK-3307","MEAN_MOTION_DDOT":"0.0000000000000","RA_OF_ASC_NODE":"254.7942","REV_AT_EPOCH":"635","NORAD_CAT_ID":"50164","BSTAR":"0.00003069400000","INCLINATION":"53.2186","SITE":"AFWTR","MEAN_ELEMENT_THEORY":"SGP4","ECCENTRICITY":"0.00009110","GP_ID":"193535668","LAUNCH_DATE":"2021-12-18","MEAN_MOTION":"15.73164122","EPHEMERIS_TYPE":"0","PERIAPSIS":"349.250","TLE_LINE1":"1 50164U 21125J   22009.91667824  .00003684  00000-0  30694-4 0  9990"},{"TLE_LINE1":"1 50165U 21125K   22009.91667824 -.00098198  00000-0 -70143-3 0  9999","PERIAPSIS":"348.965","EPHEMERIS_TYPE":"0","MEAN_MOTION":"15.73267559","LAUNCH_DATE":"2021-12-18","GP_ID":"193535664","ECCENTRICITY":"0.00008960","MEAN_ELEMENT_THEORY":"SGP4","INCLINATION":"53.2184","SITE":"AFWTR","BSTAR":"-0.00070143000000","NORAD_CAT_ID":"50165","REV_AT_EPOCH":"374","MEAN_MOTION_DDOT":"0.0000000000000","RA_OF_ASC_NODE":"254.7970","OBJECT_NAME":"STARLINK-3298","FILE":"3268278","TIME_SYSTEM":"UTC","ELEMENT_SET_NO":"999","MEAN_ANOMALY":"245.4793","OBJECT_TYPE":"PAYLOAD","APOAPSIS":"350.170","ARG_OF_PERICENTER":"84.6203","EPOCH":"2022-01-09T22:00:00.999936","OBJECT_ID":"2021-125K","CENTER_NAME":"EARTH","RCS_SIZE":"LARGE","PERIOD":"91.529","DECAY_DATE":null,"MEAN_MOTION_DOT":"-0.00098198","COUNTRY_CODE":"US","TLE_LINE2":"2 50165  53.2184 254.7970 0000896  84.6203 245.4793 15.73267559  3740","CLASSIFICATION_TYPE":"U","SEMIMAJOR_AXIS":"6727.703","REF_FRAME":"TEME"},{"SEMIMAJOR_AXIS":"6727.786","REF_FRAME":"TEME","CLASSIFICATION_TYPE":"U","TLE_LINE2":"2 50166  53.2181 254.7883 0001285  97.4021 236.4391 15.73238321  3743","COUNTRY_CODE":"US","MEAN_MOTION_DOT":"0.00002759","DECAY_DATE":null,"PERIOD":"91.531","RCS_SIZE":"LARGE","CENTER_NAME":"EARTH","OBJECT_ID":"2021-125L","EPOCH":"2022-01-09T22:00:00.999936","ARG_OF_PERICENTER":"97.4021","OBJECT_TYPE":"PAYLOAD","APOAPSIS":"350.515","MEAN_ANOMALY":"236.4391","FILE":"3268272","ELEMENT_SET_NO":"999","TIME_SYSTEM":"UTC","OBJECT_NAME":"STARLINK-3305","MEAN_MOTION_DDOT":"0.0000000000000","RA_OF_ASC_NODE":"254.7883","REV_AT_EPOCH":"374","BSTAR":"0.00002403200000","NORAD_CAT_ID":"50166","MEAN_ELEMENT_THEORY":"SGP4","SITE":"AFWTR","INCLINATION":"53.2181","ECCENTRICITY":"0.00012850","GP_ID":"193535737","LAUNCH_DATE":"2021-12-18","EPHEMERIS_TYPE":"0","MEAN_MOTION":"15.73238321","TLE_LINE1":"1 50166U 21125L   22009.91667824  .00002759  00000-0  24032-4 0  9993","PERIAPSIS":"348.786"},{"PERIAPSIS":"348.925","TLE_LINE1":"1 50167U 21125M   22009.91667824  .00003173  00000-0  26973-4 0  9991","EPHEMERIS_TYPE":"0","MEAN_MOTION":"15.73240043","LAUNCH_DATE":"2021-12-18","GP_ID":"193559454","ECCENTRICITY":"0.00010710","MEAN_ELEMENT_THEORY":"SGP4","INCLINATION":"53.2183","SITE":"AFWTR","BSTAR":"0.00002697300000","NORAD_CAT_ID":"50167","REV_AT_EPOCH":"373","RA_OF_ASC_NODE":"254.7929","MEAN_MOTION_DDOT":"0.0000000000000","OBJECT_NAME":"STARLINK-3271","TIME_SYSTEM":"UTC","FILE":"3268323","ELEMENT_SET_NO":"999","MEAN_ANOMALY":"250.6993","OBJECT_TYPE":"PAYLOAD","APOAPSIS":"350.367","ARG_OF_PERICENTER":"81.1247","EPOCH":"2022-01-09T22:00:00.999936","OBJECT_ID":"2021-125M","PERIOD":"91.531","RCS_SIZE":"LARGE","CENTER_NAME":"EARTH","DECAY_DATE":null,"MEAN_MOTION_DOT":"0.00003173","COUNTRY_CODE":"US","TLE_LINE2":"2 50167  53.2183 254.7929 0001071  81.1247 250.6993 15.73240043  3739","CLASSIFICATION_TYPE":"U","SEMIMAJOR_AXIS":"6727.781","REF_FRAME":"TEME"}];
